{
  "type": "FeatureCollection",
  "features": [
    {
      "type": "Feature",
      "properties": {
        "norad_id": 32376,
        "name": "COSMO-SKYMED 2",
        "group": "resource",
        "lat": 40.56645164172405,
        "lon": 167.4030929670807,
        "alt_km": 618.6593971373622,
        "timestamp": "2025-12-18T23:35:48.703752+00:00",
        "meta_object_name": "COSMO-SKYMED 2",
        "meta_object_id": "2007-059A",
        "meta_epoch": "2025-12-18T15:18:39.826080",
        "meta_mean_motion": 14.82149725,
        "meta_eccentricity": 0.00013525,
        "meta_inclination": 97.8803,
        "meta_ra_of_asc_node": 173.8729,
        "meta_arg_of_pericenter": 82.9305,
        "meta_mean_anomaly": 277.2062,
        "meta_ephemeris_type": 0,
        "meta_classification_type": "U",
        "meta_norad_cat_id": 32376,
        "meta_element_set_no": 999,
        "meta_rev_at_epoch": 97525,
        "meta_bstar": 6.1615697e-05,
        "meta_mean_motion_dot": 4.38e-06,
        "meta_mean_motion_ddot": 0,
        "tle_line1": "1 32376U 07059A   25352.63796095  .00000438  00000+0  61616-4 0  9992",
        "tle_line2": "2 32376  97.8803 173.8729 0001352  82.9305 277.2062 14.82149725975250"
      },
      "geometry": {
        "type": "Point",
        "coordinates": [
          167.4030929670807,
          40.56645164172405
        ]
      }
    },
    {
      "type": "Feature",
      "properties": {
        "norad_id": 32382,
        "name": "RADARSAT-2",
        "group": "resource",
        "lat": -76.42719870426437,
        "lon": 138.77873725246707,
        "alt_km": 799.8820852008221,
        "timestamp": "2025-12-18T23:35:48.703764+00:00",
        "meta_object_name": "RADARSAT-2",
        "meta_object_id": "2007-061A",
        "meta_epoch": "2025-12-18T15:40:12.487584",
        "meta_mean_motion": 14.29983014,
        "meta_eccentricity": 0.00010953,
        "meta_inclination": 98.5792,
        "meta_ra_of_asc_node": 357.1574,
        "meta_arg_of_pericenter": 83.5738,
        "meta_mean_anomaly": 276.5569,
        "meta_ephemeris_type": 0,
        "meta_classification_type": "U",
        "meta_norad_cat_id": 32382,
        "meta_element_set_no": 999,
        "meta_rev_at_epoch": 94015,
        "meta_bstar": 7.783406e-06,
        "meta_mean_motion_dot": -2.4e-07,
        "meta_mean_motion_ddot": 0,
        "tle_line1": "1 32382U 07061A   25352.65292231 -.00000024  00000+0  77834-5 0  9999",
        "tle_line2": "2 32382  98.5792 357.1574 0001095  83.5738 276.5569 14.29983014940151"
      },
      "geometry": {
        "type": "Point",
        "coordinates": [
          138.77873725246707,
          -76.42719870426437
        ]
      }
    },
    {
      "type": "Feature",
      "properties": {
        "norad_id": 32783,
        "name": "CARTOSAT-2A",
        "group": "resource",
        "lat": 69.63014449489661,
        "lon": -115.74433683521418,
        "alt_km": 630.445937866316,
        "timestamp": "2025-12-18T23:35:48.703775+00:00",
        "meta_object_name": "CARTOSAT-2A",
        "meta_object_id": "2008-021A",
        "meta_epoch": "2025-12-18T14:59:16.732608",
        "meta_mean_motion": 14.78946308,
        "meta_eccentricity": 0.00114228,
        "meta_inclination": 97.7928,
        "meta_ra_of_asc_node": 42.2645,
        "meta_arg_of_pericenter": 345.4119,
        "meta_mean_anomaly": 14.6761,
        "meta_ephemeris_type": 0,
        "meta_classification_type": "U",
        "meta_norad_cat_id": 32783,
        "meta_element_set_no": 999,
        "meta_rev_at_epoch": 95211,
        "meta_bstar": 5.1588161e-05,
        "meta_mean_motion_dot": 3.3e-06,
        "meta_mean_motion_ddot": 0,
        "tle_line1": "1 32783U 08021A   25352.62449922  .00000330  00000+0  51588-4 0  9995",
        "tle_line2": "2 32783  97.7928  42.2645 0011422 345.4119  14.6761 14.78946308952110"
      },
      "geometry": {
        "type": "Point",
        "coordinates": [
          -115.74433683521418,
          69.63014449489661
        ]
      }
    },
    {
      "type": "Feature",
      "properties": {
        "norad_id": 33320,
        "name": "HUANJING 1A (HJ-1A)",
        "group": "resource",
        "lat": 72.62361940614329,
        "lon": -44.42824985623768,
        "alt_km": 604.6084897887358,
        "timestamp": "2025-12-18T23:35:48.703787+00:00",
        "meta_object_name": "HUANJING 1A (HJ-1A)",
        "meta_object_id": "2008-041A",
        "meta_epoch": "2025-12-18T15:10:10.652736",
        "meta_mean_motion": 14.83411278,
        "meta_eccentricity": 0.00198163,
        "meta_inclination": 97.6535,
        "meta_ra_of_asc_node": 340.6847,
        "meta_arg_of_pericenter": 15.7458,
        "meta_mean_anomaly": 344.4368,
        "meta_ephemeris_type": 0,
        "meta_classification_type": "U",
        "meta_norad_cat_id": 33320,
        "meta_element_set_no": 999,
        "meta_rev_at_epoch": 93163,
        "meta_bstar": 9.165433e-05,
        "meta_mean_motion_dot": 7.03e-06,
        "meta_mean_motion_ddot": 0,
        "tle_line1": "1 33320U 08041A   25352.63206774  .00000703  00000+0  91654-4 0  9994",
        "tle_line2": "2 33320  97.6535 340.6847 0019816  15.7458 344.4368 14.83411278931638"
      },
      "geometry": {
        "type": "Point",
        "coordinates": [
          -44.42824985623768,
          72.62361940614329
        ]
      }
    },
    {
      "type": "Feature",
      "properties": {
        "norad_id": 33321,
        "name": "HUANJING 1B (HJ-1B)",
        "group": "resource",
        "lat": -75.77741160060138,
        "lon": 16.677477992137497,
        "alt_km": 646.1302226773114,
        "timestamp": "2025-12-18T23:35:48.703798+00:00",
        "meta_object_name": "HUANJING 1B (HJ-1B)",
        "meta_object_id": "2008-041B",
        "meta_epoch": "2025-12-18T14:13:52.220928",
        "meta_mean_motion": 14.82834759,
        "meta_eccentricity": 0.00380793,
        "meta_inclination": 97.6395,
        "meta_ra_of_asc_node": 344.329,
        "meta_arg_of_pericenter": 57.1621,
        "meta_mean_anomaly": 303.325,
        "meta_ephemeris_type": 0,
        "meta_classification_type": "U",
        "meta_norad_cat_id": 33321,
        "meta_element_set_no": 999,
        "meta_rev_at_epoch": 93164,
        "meta_bstar": 8.7575904e-05,
        "meta_mean_motion_dot": 6.66e-06,
        "meta_mean_motion_ddot": 0,
        "tle_line1": "1 33321U 08041B   25352.59296552  .00000666  00000+0  87576-4 0  9999",
        "tle_line2": "2 33321  97.6395 344.3290 0038079  57.1621 303.3250 14.82834759931647"
      },
      "geometry": {
        "type": "Point",
        "coordinates": [
          16.677477992137497,
          -75.77741160060138
        ]
      }
    },
    {
      "type": "Feature",
      "properties": {
        "norad_id": 33331,
        "name": "GEOEYE 1",
        "group": "resource",
        "lat": -42.46543486025901,
        "lon": -123.32738883026262,
        "alt_km": 683.0436326730678,
        "timestamp": "2025-12-18T23:35:48.703809+00:00",
        "meta_object_name": "GEOEYE 1",
        "meta_object_id": "2008-042A",
        "meta_epoch": "2025-12-18T11:06:19.078848",
        "meta_mean_motion": 14.647079,
        "meta_eccentricity": 0.00027802,
        "meta_inclination": 98.1248,
        "meta_ra_of_asc_node": 63.6715,
        "meta_arg_of_pericenter": 260.2007,
        "meta_mean_anomaly": 99.8882,
        "meta_ephemeris_type": 0,
        "meta_classification_type": "U",
        "meta_norad_cat_id": 33331,
        "meta_element_set_no": 999,
        "meta_rev_at_epoch": 92369,
        "meta_bstar": 9.4803838e-05,
        "meta_mean_motion_dot": 4.57e-06,
        "meta_mean_motion_ddot": 0,
        "tle_line1": "1 33331U 08042A   25352.46272082  .00000457  00000+0  94804-4 0  9999",
        "tle_line2": "2 33331  98.1248  63.6715 0002780 260.2007  99.8882 14.64707900923690"
      },
      "geometry": {
        "type": "Point",
        "coordinates": [
          -123.32738883026262,
          -42.46543486025901
        ]
      }
    },
    {
      "type": "Feature",
      "properties": {
        "norad_id": 33396,
        "name": "THEOS",
        "group": "resource",
        "lat": 21.84669804367999,
        "lon": -125.6380594385408,
        "alt_km": 824.3631177724883,
        "timestamp": "2025-12-18T23:35:48.703820+00:00",
        "meta_object_name": "THEOS",
        "meta_object_id": "2008-049A",
        "meta_epoch": "2025-12-18T14:24:05.296320",
        "meta_mean_motion": 14.20096769,
        "meta_eccentricity": 0.00011866,
        "meta_inclination": 98.5868,
        "meta_ra_of_asc_node": 50.5172,
        "meta_arg_of_pericenter": 94.8959,
        "meta_mean_anomaly": 265.2354,
        "meta_ephemeris_type": 0,
        "meta_classification_type": "U",
        "meta_norad_cat_id": 33396,
        "meta_element_set_no": 999,
        "meta_rev_at_epoch": 89233,
        "meta_bstar": -3.6889888e-05,
        "meta_mean_motion_dot": -1.21e-06,
        "meta_mean_motion_ddot": 0,
        "tle_line1": "1 33396U 08049A   25352.60006130 -.00000121  00000+0 -36890-4 0  9993",
        "tle_line2": "2 33396  98.5868  50.5172 0001186  94.8959 265.2354 14.20096769892336"
      },
      "geometry": {
        "type": "Point",
        "coordinates": [
          -125.6380594385408,
          21.84669804367999
        ]
      }
    }
  ]
}